NORAD_CAT_ID,OBJECT_NAME,OBJECT_TYPE,EPOCH,MEAN_MOTION,ECCENTRICITY,INCLINATION,RA_OF_ASC_NODE,ARG_OF_PERICENTER,MEAN_ANOMALY,BSTAR,MEAN_MOTION_DOT,MEAN_MOTION_DDOT,TLE_LINE0,TLE_LINE1,TLE_LINE2,SEMIMAJOR_AXIS,PERIOD,APOGEE,PERIGEE,DECAYED
49414.0,STARLINK-3146,PAYLOAD,2022-01-12 14:00:01,15.28897555,0.0001325,53.2176,200.7591,60.5386,306.3936,-0.024993,-0.0066024,0.0,0 STARLINK-3146,1 49414U 21104G   22012.58334491 -.00660240  00000-0 -24993-1 0  9992,2 49414  53.2176 200.7591 0001325  60.5386 306.3936 15.28897555  3661,6857.244000000002,94.186,480.017,478.2,0.0
49414.0,STARLINK-3146,PAYLOAD,2022-01-13 14:00:01,15.27497099,0.0001567,53.2175,196.1282,47.9651,63.5213,-0.026059,-0.00659475,0.0,0 STARLINK-3146,1 49414U 21104G   22013.58334491 -.00659475  00000-0 -26059-1 0  9996,2 49414  53.2175 196.1282 0001567  47.9651  63.5213 15.27497099  3643,6861.434,94.272,484.375,482.224,0.0
49414.0,STARLINK-3146,PAYLOAD,2022-01-13 22:00:00,15.27027281,0.0001589,53.2175,194.5884,50.2561,94.9605,-0.026216,-0.00654374,0.0,0 STARLINK-3146,1 49414U 21104G   22013.91667824 -.00654374  00000-0 -26216-1 0  9990,2 49414  53.2175 194.5884 0001589  50.2561  94.9605 15.27027281  3638,6862.842,94.301,485.797,483.616,0.0
49414.0,STARLINK-3146,PAYLOAD,2022-01-14 04:00:00,15.26680841,0.0001361,53.2174,193.4318,56.2818,23.8637,-0.026735,-0.00659871,0.0,0 STARLINK-3146,1 49414U 21104G   22014.16667824 -.00659871  00000-0 -26735-1 0  9991,2 49414  53.2174 193.4318 0001361  56.2818  23.8637 15.26680841 10928,6863.88,94.322,486.679,484.811,0.0
49414.0,STARLINK-3146,PAYLOAD,2022-01-14 14:00:01,15.26096541,0.0001571,53.2176,191.5074,57.2458,153.7485,-0.027123,-0.00657836,0.0,0 STARLINK-3146,1 49414U 21104G   22014.58334491 -.00657836  00000-0 -27123-1 0  9999,2 49414  53.2176 191.5074 0001571  57.2458 153.7485 15.26096541  3656,6865.632,94.358,488.575,486.418,0.0
49414.0,STARLINK-3146,PAYLOAD,2022-01-14 22:00:00,15.25627131,0.0001579,53.2175,189.9706,54.5883,188.4542,-0.02729,-0.00652907,0.0,0 STARLINK-3146,1 49414U 21104G   22014.91667824 -.00652907  00000-0 -27290-1 0  9994,2 49414  53.2175 189.9706 0001579  54.5883 188.4542 15.25627131  3707,6867.04,94.387,489.989,487.821,0.0
49414.0,STARLINK-3146,PAYLOAD,2022-01-15 12:00:00,15.2481436,0.0001696999999999,53.2175,187.2796,49.8197,157.9573,-0.028226,-0.00658516,0.0,0 STARLINK-3146,1 49414U 21104G   22015.50001157 -.00658516  00000-0 -28226-1 0  9993,2 49414  53.2175 187.2796 0001697  49.8197 157.9573 15.24814360 11124,6869.48,94.438,492.511,490.179,0.0
49414.0,STARLINK-3146,PAYLOAD,2022-01-15 14:00:01,15.24697599,0.0001573,53.2175,186.8961,49.4597,256.0601,-0.028346,-0.00658947,0.0,0 STARLINK-3146,1 49414U 21104G   22015.58335648 -.00658947  00000-0 -28346-1 0  9997,2 49414  53.2175 186.8961 0001573  49.4597 256.0601 15.24697599  3651,6869.831,94.445,492.776,490.615,0.0
49414.0,STARLINK-3146,PAYLOAD,2022-01-15 22:00:01,15.2422885,0.0001401,53.2174,185.3626,56.4042,279.4815,-0.028568,-0.00655088,0.0,0 STARLINK-3146,1 49414U 21104G   22015.91668981 -.00655088  00000-0 -28568-1 0  9992,2 49414  53.2174 185.3626 0001401  56.4042 279.4815 15.24228850  3662,6871.239000000001,94.474,494.067,492.141,0.0
49414.0,STARLINK-3146,PAYLOAD,2022-01-16 14:00:01,15.23298864,0.0001608,53.2176,182.295,41.8944,352.9779,-0.029649,-0.00660796,0.0,0 STARLINK-3146,1 49414U 21104G   22016.58334491 -.00660796  00000-0 -29649-1 0  9995,2 49414  53.2176 182.2950 0001608  41.8944 352.9779 15.23298864  3643,6874.035,94.532,497.006,494.795,0.0
49414.0,STARLINK-3146,PAYLOAD,2022-01-16 22:00:00,15.22828877,0.0001473,53.2173,180.7646,49.0151,14.5418,-0.029774,-0.0065479,0.0,0 STARLINK-3146,1 49414U 21104G   22016.91667824 -.00654790  00000-0 -29774-1 0  9997,2 49414  53.2173 180.7646 0001473  49.0151  14.5418 15.22828877  3659,6875.45,94.561,498.327,496.302,0.0
49414.0,STARLINK-3146,PAYLOAD,2022-01-17 12:00:00,15.22014902,0.000168,53.2175,178.0853,40.2335,342.1718,-0.030701,-0.00658769,0.0,0 STARLINK-3146,1 49414U 21104G   22017.50001157 -.00658769  00000-0 -30701-1 0  9996,2 49414  53.2175 178.0853 0001680  40.2335 342.1718 15.22014902 11421,6877.901,94.611,500.921,498.61,0.0
49414.0,STARLINK-3146,PAYLOAD,2022-01-17 14:00:01,15.21898243,0.0001856,53.2174,177.7035,38.3808,80.8626,-0.030845,-0.00659538,0.0,0 STARLINK-3146,1 49414U 21104G   22017.58334491 -.00659538  00000-0 -30845-1 0  9998,2 49414  53.2174 177.7035 0001856  38.3808  80.8626 15.21898243  3642,6878.252,94.619,501.394,498.841,0.0
49414.0,STARLINK-3146,PAYLOAD,2022-01-17 22:00:00,15.21428325,0.0001595,53.2172,176.1763,49.8098,96.4363,-0.030965,-0.00653403,0.0,0 STARLINK-3146,1 49414U 21104G   22017.91667824 -.00653403  00000-0 -30965-1 0  9992,2 49414  53.2172 176.1763 0001595  49.8098  96.4363 15.21428325  3640,6879.668000000002,94.648,502.631,500.436,0.0
49414.0,STARLINK-3146,PAYLOAD,2022-01-18 12:00:00,15.20614595,0.0001848,53.2174,173.5027,37.7294,64.4217,-0.031965,-0.0065819,0.0,0 STARLINK-3146,1 49414U 21104G   22018.50001157 -.00658190  00000-0 -31965-1 0  9998,2 49414  53.2174 173.5027 0001848  37.7294  64.4217 15.20614595 11581,6882.123000000001,94.699,505.259,502.716,0.0
49414.0,STARLINK-3146,PAYLOAD,2022-01-18 14:00:01,15.20497061,0.0001908,53.2174,173.1219,40.6491,157.9197,-0.032004,-0.00656833,0.0,0 STARLINK-3146,1 49414U 21104G   22018.58334491 -.00656833  00000-0 -32004-1 0  9993,2 49414  53.2174 173.1219 0001908  40.6491 157.9197 15.20497061  3649,6882.477,94.706,505.655,503.029,0.0
49414.0,STARLINK-3146,PAYLOAD,2022-01-18 22:00:00,15.2002975,0.0001611,53.2171,171.5978,52.2009,171.6878,-0.032351,-0.0065502,0.0,0 STARLINK-3146,1 49414U 21104G   22018.91667824 -.00655020  00000-0 -32351-1 0  9991,2 49414  53.2171 171.5978 0001611  52.2009 171.6878 15.20029750  3640,6883.888000000001,94.735,506.862,504.644,0.0
49414.0,STARLINK-3146,PAYLOAD,2022-01-19 14:00:01,15.19009076,0.0001727,53.217,168.5513,53.7273,219.1653,-0.026874,-0.00535581,0.0,0 STARLINK-3146,1 49414U 21104G   22019.58334491 -.00535581  00000-0 -26874-1 0  9998,2 49414  53.2170 168.5513 0001727  53.7273 219.1653 15.19009076  3610,6886.971,94.799,510.026,507.647,0.0
49414.0,STARLINK-3146,PAYLOAD,2022-01-19 22:00:00,15.18631815,0.0001558,53.2171,167.02900000000002,49.1851,247.3003,-0.033846,-0.00664856,0.0,0 STARLINK-3146,1 49414U 21104G   22019.91667824 -.00664856  00000-0 -33846-1 0  9999,2 49414  53.2171 167.0290 0001558  49.1851 247.3003 15.18631815  3635,6888.111999999999,94.822,511.05,508.903,0.0
49414.0,STARLINK-3146,PAYLOAD,2022-01-20 14:00:01,15.17581105,0.0001466,53.2172,163.9895,44.527,297.6178,-0.026208,-0.00498163,0.0,0 STARLINK-3146,1 49414U 21104G   22020.58334491 -.00498163  00000-0 -26208-1 0  9995,2 49414  53.2172 163.9895 0001466  44.5270 297.6178 15.17581105  3618,6891.291,94.888,514.1659999999998,512.145,0.0
49414.0,STARLINK-3146,PAYLOAD,2022-01-20 20:00:01,15.17345277,0.0001619,53.2173,162.85,51.6166,217.0483,-0.034809,-0.00659171,0.0,0 STARLINK-3146,1 49414U 21104G   22020.83335648 -.00659171  00000-0 -34809-1 0  9992,2 49414  53.2173 162.8500 0001619  51.6166 217.0483 15.17345277 11930,6892.005,94.903,514.985,512.754,0.0
49414.0,STARLINK-3146,PAYLOAD,2022-01-20 22:00:00,15.17232363,0.000151,53.2172,162.4701,47.0118,317.0252,-0.035265,-0.00665224,0.0,0 STARLINK-3146,1 49414U 21104G   22020.91667824 -.00665224  00000-0 -35265-1 0  9998,2 49414  53.2172 162.4701 0001510  47.0118 317.0252 15.17232363  3627,6892.347,94.91,515.252,513.1709999999998,0.0
49414.0,STARLINK-3146,PAYLOAD,2022-01-21 14:00:01,15.16210043,0.0001626,53.2173,159.4375,37.9897,8.3256,-0.029347,-0.00539238,0.0,0 STARLINK-3146,1 49414U 21104G   22021.58334491 -.00539238  00000-0 -29347-1 0  9992,2 49414  53.2173 159.4375 0001626  37.9897   8.3256 15.16210043  3603,6895.444,94.974,518.431,516.188,0.0
49414.0,STARLINK-3146,PAYLOAD,2022-01-21 20:00:01,15.15946612,0.0001618,53.2173,158.3001,44.3371,287.1905,-0.036327,-0.00660737,0.0,0 STARLINK-3146,1 49414U 21104G   22021.83334491 -.00660737  00000-0 -36327-1 0  9995,2 49414  53.2173 158.3001 0001618  44.3371 287.1905 15.15946612 12084,6896.243,94.99,519.224,516.992,0.0
49414.0,STARLINK-3146,PAYLOAD,2022-01-21 22:00:00,15.1583167,0.0001685,53.2171,157.9211,40.4711,26.0723,-0.036617,-0.00663641,0.0,0 STARLINK-3146,1 49414U 21104G   22021.91667824 -.00663641  00000-0 -36617-1 0  9992,2 49414  53.2171 157.9211 0001685  40.4711  26.0723 15.15831670  3635,6896.592,94.997,519.619,517.295,0.0
49414.0,STARLINK-3146,PAYLOAD,2022-01-22 14:00:01,15.14795891,0.0001792,53.2172,154.8952,37.0822,68.3821,-0.029314,-0.00518611,0.0,0 STARLINK-3146,1 49414U 21104G   22022.58334491 -.00518611  00000-0 -29314-1 0  9999,2 49414  53.2172 154.8952 0001792  37.0822  68.3821 15.14795891  3606,6899.735,95.062,522.837,520.364,0.0
49414.0,STARLINK-3146,PAYLOAD,2022-01-22 20:00:01,15.14547208,0.0001678,53.2173,153.7601,39.9892,349.4191,-0.037841,-0.00661343,0.0,0 STARLINK-3146,1 49414U 21104G   22022.83334491 -.00661343  00000-0 -37841-1 0  9992,2 49414  53.2173 153.7601 0001678  39.9892 349.4191 15.14547208 12247,6900.491,95.078,523.513,521.198,0.0
49414.0,STARLINK-3146,PAYLOAD,2022-01-22 22:00:00,15.14431355,0.00018,53.2171,153.3817,40.5675,83.4364,-0.038053,-0.00662783,0.0,0 STARLINK-3146,1 49414U 21104G   22022.91667824 -.00662783  00000-0 -38053-1 0  9995,2 49414  53.2171 153.3817 0001800  40.5675  83.4364 15.14431355  3628,6900.842,95.085,523.95,521.465,0.0
49414.0,STARLINK-3146,PAYLOAD,2022-01-23 14:00:01,15.13497831,0.0002194,53.2172,150.3609,32.4661,127.0419,-0.039094,-0.00663184,0.0,0 STARLINK-3146,1 49414U 21104G   22023.58334491 -.00663184  00000-0 -39094-1 0  9992,2 49414  53.2172 150.3609 0002194  32.4661 127.0419 15.13497831  3634,6903.68,95.144,527.059,524.03,0.0
